MOLNIYA 2-9             
1 07276U 74026A   23143.67401030  .00000156  00000+0  00000+0 0  9995
2 07276  64.2807 180.9360 6381085 276.6238  19.4365  2.45098348257727
MOLNIYA 2-10            
1 07376U 74056A   23143.00269810  .00000859  00000+0  00000+0 0  9994
2 07376  64.6257  59.0213 6803298 283.7546  13.9378  2.01079325357180
MOLNIYA 1-S             
1 07392U 74060A   23143.85619660  .00000124  00000+0  00000+0 0  9997
2 07392   4.2526 277.6168 0010949 216.1452 103.4787  1.00313331122935
MOLNIYA 1-29            
1 07780U 75036A   23141.16327381  .00000298  00000+0 -12749+0 0  9996
2 07780  63.4174 179.1690 6758912 286.9295  13.3431  2.00588300352394
MOLNIYA 2-14            
1 08195U 75081A   23143.14104273  .00000734  00000+0  00000+0 0  9991
2 08195  63.4187 152.4866 6705041 291.2848  12.4202  2.02099337349757
MOLNIYA 1-32            
1 08601U 76006A   23144.49429054  .00001157  00000+0  00000+0 0  9997
2 08601  63.5740 252.6617 7073573 283.7506  12.2545  2.00040374345825
MOLNIYA 1-36            
1 09880U 77021A   23143.26856065  .00000007  00000+0  00000+0 0  9998
2 09880  63.4383 226.1143 6984923 289.2417  11.4539  2.00331533236180
MOLNIYA 3-8             
1 10455U 77105A   23142.55569231  .00000988  00000+0  46570-2 0  9991
2 10455  63.4930 307.4498 7278704 282.7565  11.0457  2.00474525333946
MOLNIYA 1-40            
1 10925U 78055A   23142.64743521 -.00000087  00000+0  00000+0 0  9990
2 10925  63.6772 359.7161 7262382 280.6543  11.6609  2.00512149329483
MOLNIYA 3-10            
1 11057U 78095A   23143.69869329  .00000191  00000+0  14980-2 0  9992
2 11057  63.2520 274.9737 5757915 312.8768  11.2720  4.09886359397674
MOLNIYA 3-13            
1 11896U 80063A   23143.90649215  .00000222  00000+0  00000+0 0  9995
2 11896  62.8636  92.2268 7212875 277.0655  13.0907  2.00575396313971
MOLNIYA 1-49            
1 12156U 81009A   23142.98908141 -.00000456  00000+0  52638-3 0  9997
2 12156  61.7008 111.1603 7406654 268.2162  14.2871  2.05748364228476
MOLNIYA 1-52            
1 13012U 81123A   23143.26353557 -.00000353  00000+0 -16897-1 0  9995
2 13012  61.6228 230.4054 7166651 259.4604  19.7897  2.00858616303399
MOLNIYA 1-53            
1 13070U 82015A   23143.22187839  .00001438  00000+0  29599-1 0  9990
2 13070  62.5681 173.6151 6937451 283.2326  13.2198  2.00464849302079
MOLNIYA 3-20            
1 13875U 83015A   23143.38709194 -.00001484  00000+0 -15591-3 0  9997
2 13875  62.3391 298.9753 7348220 261.5927  17.1205  2.00619152230536
MOLNIYA 1-56            
1 13890U 83019A   23139.76119195  .00000284  00000+0 -21055-3 0  9999
2 13890  62.8036 323.7282 7423215 267.2208  14.3367  2.00076640293324
MOLNIYA 1-63            
1 15429U 84124A   23143.92941663 -.00000901  00000+0  00000+0 0  9992
2 15429  63.6306 133.8957 6799044 257.4282  19.0238  2.00423804281582
MOLNIYA 3-24            
1 15738U 85040A   23142.71427329 -.00000059  00000+0  13220-2 0  9992
2 15738  63.4510  17.7733 6894536 247.3951  29.5164  2.55630890312545
MOLNIYA 3-27            
1 16393U 85117A   23141.74296352 -.00000191  00000+0  00000+0 0  9993
2 16393  64.1433  35.5991 7100102 246.4314  27.6226  2.12397605281362
MOLNIYA 1-69            
1 17078U 86089A   23143.06320545 -.00000174  00000+0  00000+0 0  9993
2 17078  64.0658 153.4507 6775738 255.1198  25.9983  2.00999393267648
MOLNIYA 3-31            
1 17328U 87008A   23143.86606065 -.00000256  00000+0  00000+0 0  9996
2 17328  63.5677  85.6998 7221928 253.0001  22.3045  2.00574752262721
MOLNIYA 1-71            
1 18946U 88017A   23143.86848180  .00000296  00000+0  67229-3 0  9993
2 18946  63.3049  76.7696 7326207 256.5140  19.4628  2.00653283257920
MOLNIYA 1-75            
1 19807U 89014A   23142.70275932 -.00001052  00000+0  00000+0 0  9991
2 19807  63.8576 248.5165 6726431 265.0675  21.4171  2.00355053250807
MOLNIYA 1-80            
1 21118U 91012A   23139.82160774 -.00000158  00000+0  00000+0 0  9992
2 21118  65.1595 297.1477 6680250 273.2061  18.2481  2.05235340237887
MOLNIYA 3-40            
1 21196U 91022A   23142.24002305  .00000135  00000+0  00000+0 0  9998
2 21196  65.0119 290.7010 6705350 270.1284  19.3174  2.02993633236566
MOLNIYA 1-81            
1 21426U 91043A   23143.48556777 -.00000004  00000+0  00000+0 0  9997
2 21426  63.8722 301.4580 7021403 265.1914  18.5963  2.00597820233981
MOLNIYA 3-41            
1 21706U 91065A   23143.49951919 -.00000775  00000+0  00000+0 0  9995
2 21706  64.0575 127.2675 7016853 252.9445  24.6124  2.04363725233870
MOLNIYA 3-42            
1 22178U 92067A   23142.66980331  .00000166  00000+0  00000+0 0  9993
2 22178  64.6764 180.4818 6438544 261.3911  26.0070  2.20435543 87538
MOLNIYA 1-86            
1 22671U 93035A   23144.16417263  .00000336  00000+0  60647-3 0  9999
2 22671  63.1292  38.6975 4846641  12.4808 356.2451  5.62931312371422
MOLNIYA 1-87            
1 22949U 93079A   23142.69136780 -.00001239  00000+0  00000+0 0  9990
2 22949  64.4195  52.7481 6947853 281.9860  13.4860  2.02868468 81814
MOLNIYA 1-88            
1 23420U 94081A   23144.00597172  .00000067  00000+0  00000+0 0  9999
2 23420  64.2998 120.6774 5818618 276.6859  23.9654  3.34498104258334
MOLNIYA 3-47            
1 23642U 95042A   23141.96508719  .00000678  00000+0  00000+0 0  9992
2 23642  64.5564  34.2456 6974387 282.2195  13.2128  2.01923591203853
MOLNIYA 1-90            
1 24960U 97054A   23143.86341766  .00000056  00000+0  41552-2 0  9999
2 24960  63.8291  85.8985 6100198 296.0064  14.5775  3.18690647218854
MOLNIYA 1-91            
1 25485U 98054A   23143.87021027  .00000068  00000+0  00000+0 0  9992
2 25485  63.2894  97.2015 6786787 291.7427  11.8555  2.36445580187089
MOLNIYA 3-50            
1 25847U 99036A   23144.43234299 -.00000106  00000+0 -38910-2 0  9994
2 25847  63.3417 283.8568 7249677 282.8212  11.3055  2.00584517174952
